{"type": "FeatureCollection", "features": [ {"type": "Feature", "properties": {"norad_id": 32185, "name": "FENGYUN 1C DEB", "group": "fengyun-1c-debris", "lat": 3.4552745149929818, "lon": -153.09076751816463, "alt_km": 458.5286935873819, "timestamp": "2025-12-25T07:00:34.334413+00:00", "meta": {"OBJECT_NAME": "FENGYUN 1C DEB", "OBJECT_ID": "1999-025CUF", "EPOCH": "2025-12-24T19:49:23.077920", "MEAN_MOTION": 15.04699108, "ECCENTRICITY": 0.01584017, "INCLINATION": 98.9038, "RA_OF_ASC_NODE": 206.9147, "ARG_OF_PERICENTER": 336.0594, "MEAN_ANOMALY": 23.3318, "EPHEMERIS_TYPE": 0, "CLASSIFICATION_TYPE": "U", "NORAD_CAT_ID": 32185, "ELEMENT_SET_NO": 999, "REV_AT_EPOCH": 95197, "BSTAR": 0.0031547164, "MEAN_MOTION_DOT": 0.00059117, "MEAN_MOTION_DDOT": 0}, "tle": {"line1": "1 32185U 99025CUF 25358.82596155  .00059117  00000+0  31547-2 0  9992", "line2": "2 32185  98.9038 206.9147 0158401 336.0594  23.3318 15.04699108951970"}}, "geometry": {"type": "Point", "coordinates": [-153.09076751816463, 3.4552745149929818]}}, {"type": "Feature", "properties": {"norad_id": 32186, "name": "FENGYUN 1C DEB", "group": "fengyun-1c-debris", "lat": -62.089324437944825, "lon": 68.55930905068959, "alt_km": 1104.9985503756006, "timestamp": "2025-12-25T07:00:34.334424+00:00", "meta": {"OBJECT_NAME": "FENGYUN 1C DEB", "OBJECT_ID": "1999-025CUG", "EPOCH": "2025-12-24T21:44:29.501664", "MEAN_MOTION": 13.76536881, "ECCENTRICITY": 0.02747282, "INCLINATION": 99.6077, "RA_OF_ASC_NODE": 49.5209, "ARG_OF_PERICENTER": 169.1141, "MEAN_ANOMALY": 12.1096, "EPHEMERIS_TYPE": 0, "CLASSIFICATION_TYPE": "U", "NORAD_CAT_ID": 32186, "ELEMENT_SET_NO": 999, "REV_AT_EPOCH": 62777, "BSTAR": 0.00079855135, "MEAN_MOTION_DOT": 9.87e-06, "MEAN_MOTION_DDOT": 0}, "tle": {"line1": "1 32186U 99025CUG 25358.90589701  .00000987  00000+0  79855-3 0  9997", "line2": "2 32186  99.6077  49.5209 0274728 169.1141  12.1096 13.76536881627778"}}, "geometry": {"type": "Point", "coordinates": [68.55930905068959, -62.089324437944825]}}, {"type": "Feature", "properties": {"norad_id": 32187, "name": "FENGYUN 1C DEB", "group": "fengyun-1c-debris", "lat": 1.513689430325312, "lon": 77.44837160305835, "alt_km": 1152.6778704480757, "timestamp": "2025-12-25T07:00:34.334435+00:00", "meta": {"OBJECT_NAME": "FENGYUN 1C DEB", "OBJECT_ID": "1999-025CUH", "EPOCH": "2025-12-22T04:28:26.607648", "MEAN_MOTION": 13.50503481, "ECCENTRICITY": 0.02941998, "INCLINATION": 99.5061, "RA_OF_ASC_NODE": 74.7318, "ARG_OF_PERICENTER": 122.3, "MEAN_ANOMALY": 271.1803, "EPHEMERIS_TYPE": 0, "CLASSIFICATION_TYPE": "U", "NORAD_CAT_ID": 32187, "ELEMENT_SET_NO": 999, "REV_AT_EPOCH": 66386, "BSTAR": 0.00040708636, "MEAN_MOTION_DOT": 3.02e-06, "MEAN_MOTION_DDOT": 0}, "tle": {"line1": "1 32187U 99025CUH 25356.18641907  .00000302  00000+0  40709-3 0  9990", "line2": "2 32187  99.5061  74.7318 0294199 122.3000 271.1803 13.50503481663866"}}, "geometry": {"type": "Point", "coordinates": [77.44837160305835, 1.513689430325312]}}, {"type": "Feature", "properties": {"norad_id": 32191, "name": "FENGYUN 1C DEB", "group": "fengyun-1c-debris", "lat": -66.90416699857653, "lon": -145.75669040800244, "alt_km": 823.5330908530923, "timestamp": "2025-12-25T07:00:34.334446+00:00", "meta": {"OBJECT_NAME": "FENGYUN 1C DEB", "OBJECT_ID": "1999-025CUM", "EPOCH": "2025-12-24T09:38:10.800960", "MEAN_MOTION": 14.25267986, "ECCENTRICITY": 0.00939047, "INCLINATION": 98.7065, "RA_OF_ASC_NODE": 54.4185, "ARG_OF_PERICENTER": 153.0879, "MEAN_ANOMALY": 207.5216, "EPHEMERIS_TYPE": 0, "CLASSIFICATION_TYPE": "U", "NORAD_CAT_ID": 32191, "ELEMENT_SET_NO": 999, "REV_AT_EPOCH": 64667, "BSTAR": 0.0013810269, "MEAN_MOTION_DOT": 3.36e-05, "MEAN_MOTION_DDOT": 0}, "tle": {"line1": "1 32191U 99025CUM 25358.40151390  .00003360  00000+0  13810-2 0  9993", "line2": "2 32191  98.7065  54.4185 0093904 153.0879 207.5216 14.25267986646670"}}, "geometry": {"type": "Point", "coordinates": [-145.75669040800244, -66.90416699857653]}}, {"type": "Feature", "properties": {"norad_id": 32192, "name": "FENGYUN 1C DEB", "group": "fengyun-1c-debris", "lat": -75.95738902259029, "lon": 11.655584168452737, "alt_km": 1047.5599706810326, "timestamp": "2025-12-25T07:00:34.334456+00:00", "meta": {"OBJECT_NAME": "FENGYUN 1C DEB", "OBJECT_ID": "1999-025CUN", "EPOCH": "2025-12-24T21:05:31.663680", "MEAN_MOTION": 13.82520639, "ECCENTRICITY": 0.01821936, "INCLINATION": 98.6526, "RA_OF_ASC_NODE": 228.7776, "ARG_OF_PERICENTER": 129.5332, "MEAN_ANOMALY": 232.2086, "EPHEMERIS_TYPE": 0, "CLASSIFICATION_TYPE": "U", "NORAD_CAT_ID": 32192, "ELEMENT_SET_NO": 999, "REV_AT_EPOCH": 92880, "BSTAR": 0.00028609009, "MEAN_MOTION_DOT": 3.14e-06, "MEAN_MOTION_DDOT": 0}, "tle": {"line1": "1 32192U 99025CUN 25358.87883870  .00000314  00000+0  28609-3 0  9999", "line2": "2 32192  98.6526 228.7776 0182193 129.5332 232.2086 13.82520639928802"}}, "geometry": {"type": "Point", "coordinates": [11.655584168452737, -75.95738902259029]}}, {"type": "Feature", "properties": {"norad_id": 32195, "name": "FENGYUN 1C DEB", "group": "fengyun-1c-debris", "lat": -69.46525647022455, "lon": 157.01369324301186, "alt_km": 823.489146738415, "timestamp": "2025-12-25T07:00:34.334467+00:00", "meta": {"OBJECT_NAME": "FENGYUN 1C DEB", "OBJECT_ID": "1999-025CUR", "EPOCH": "2025-12-24T05:56:47.931936", "MEAN_MOTION": 14.08485817, "ECCENTRICITY": 0.00684544, "INCLINATION": 98.7735, "RA_OF_ASC_NODE": 0.3464, "ARG_OF_PERICENTER": 267.4095, "MEAN_ANOMALY": 91.9238, "EPHEMERIS_TYPE": 0, "CLASSIFICATION_TYPE": "U", "NORAD_CAT_ID": 32195, "ELEMENT_SET_NO": 999, "REV_AT_EPOCH": 64144, "BSTAR": 0.00047298504, "MEAN_MOTION_DOT": 7.86e-06, "MEAN_MOTION_DDOT": 0}, "tle": {"line1": "1 32195U 99025CUR 25358.24777699  .00000786  00000+0  47299-3 0  9993", "line2": "2 32195  98.7735   0.3464 0068454 267.4095  91.9238 14.08485817641445"}}, "geometry": {"type": "Point", "coordinates": [157.01369324301186, -69.46525647022455]}}, {"type": "Feature", "properties": {"norad_id": 32197, "name": "FENGYUN 1C DEB", "group": "fengyun-1c-debris", "lat": 24.2112809755178, "lon": -95.3246931445269, "alt_km": 895.1944766930956, "timestamp": "2025-12-25T07:00:34.334478+00:00", "meta": {"OBJECT_NAME": "FENGYUN 1C DEB", "OBJECT_ID": "1999-025CUT", "EPOCH": "2025-12-21T14:37:07.256064", "MEAN_MOTION": 14.3268413, "ECCENTRICITY": 0.0161343, "INCLINATION": 98.9021, "RA_OF_ASC_NODE": 264.9335, "ARG_OF_PERICENTER": 203.7564, "MEAN_ANOMALY": 276.5587, "EPHEMERIS_TYPE": 0, "CLASSIFICATION_TYPE": "U", "NORAD_CAT_ID": 32197, "ELEMENT_SET_NO": 999, "REV_AT_EPOCH": 94550, "BSTAR": 0.00025366, "MEAN_MOTION_DOT": 7.46e-06, "MEAN_MOTION_DDOT": 0}, "tle": {"line1": "1 32197U 99025CUT 25355.60911176  .00000746  00000+0  25366-3 0  9999", "line2": "2 32197  98.9021 264.9335 0161343 203.7564 276.5587 14.32684130945505"}}, "geometry": {"type": "Point", "coordinates": [-95.3246931445269, 24.2112809755178]}}, {"type": "Feature", "properties": {"norad_id": 32198, "name": "FENGYUN 1C DEB", "group": "fengyun-1c-debris", "lat": 34.183920230747184, "lon": 139.53565994444565, "alt_km": 911.5807307380401, "timestamp": "2025-12-25T07:00:34.334488+00:00", "meta": {"OBJECT_NAME": "FENGYUN 1C DEB", "OBJECT_ID": "1999-025CUU", "EPOCH": "2025-12-24T03:34:24.985056", "MEAN_MOTION": 14.08898866, "ECCENTRICITY": 0.00943864, "INCLINATION": 98.3432, "RA_OF_ASC_NODE": 144.1972, "ARG_OF_PERICENTER": 259.6989, "MEAN_ANOMALY": 99.353, "EPHEMERIS_TYPE": 0, "CLASSIFICATION_TYPE": "U", "NORAD_CAT_ID": 32198, "ELEMENT_SET_NO": 999, "REV_AT_EPOCH": 57106, "BSTAR": 0.0019643407, "MEAN_MOTION_DOT": 3.499e-05, "MEAN_MOTION_DDOT": 0}, "tle": {"line1": "1 32198U 99025CUU 25358.14890029  .00003499  00000+0  19643-2 0  9993", "line2": "2 32198  98.3432 144.1972 0094386 259.6989  99.3530 14.08898866571066"}}, "geometry": {"type": "Point", "coordinates": [139.53565994444565, 34.183920230747184]}}, {"type": "Feature", "properties": {"norad_id": 32200, "name": "FENGYUN 1C DEB", "group": "fengyun-1c-debris", "lat": -73.70465225555853, "lon": -163.8638259834541, "alt_km": 818.2316731216943, "timestamp": "2025-12-25T07:00:34.334499+00:00", "meta": {"OBJECT_NAME": "FENGYUN 1C DEB", "OBJECT_ID": "1999-025CUW", "EPOCH": "2025-12-24T14:32:07.690848", "MEAN_MOTION": 14.15742565, "ECCENTRICITY": 0.00399843, "INCLINATION": 98.7894, "RA_OF_ASC_NODE": 47.4141, "ARG_OF_PERICENTER": 255.3373, "MEAN_ANOMALY": 104.3367, "EPHEMERIS_TYPE": 0, "CLASSIFICATION_TYPE": "U", "NORAD_CAT_ID": 32200, "ELEMENT_SET_NO": 999, "REV_AT_EPOCH": 94531, "BSTAR": 0.00093039677, "MEAN_MOTION_DOT": 1.796e-05, "MEAN_MOTION_DDOT": 0}, "tle": {"line1": "1 32200U 99025CUW 25358.60564457  .00001796  00000+0  93040-3 0  9993", "line2": "2 32200  98.7894  47.4141 0039984 255.3373 104.3367 14.15742565945312"}}, "geometry": {"type": "Point", "coordinates": [-163.8638259834541, -73.70465225555853]}}, {"type": "Feature", "properties": {"norad_id": 32203, "name": "FENGYUN 1C DEB", "group": "fengyun-1c-debris", "lat": -44.803195635874694, "lon": -102.68552335469595, "alt_km": 449.1857169926525, "timestamp": "2025-12-25T07:00:34.334510+00:00", "meta": {"OBJECT_NAME": "FENGYUN 1C DEB", "OBJECT_ID": "1999-025CUZ", "EPOCH": "2025-12-24T10:57:17.794944", "MEAN_MOTION": 15.4180652, "ECCENTRICITY": 0.01414984, "INCLINATION": 97.0154, "RA_OF_ASC_NODE": 249.4857, "ARG_OF_PERICENTER": 49.8239, "MEAN_ANOMALY": 311.5297, "EPHEMERIS_TYPE": 0, "CLASSIFICATION_TYPE": "U", "NORAD_CAT_ID": 32203, "ELEMENT_SET_NO": 999, "REV_AT_EPOCH": 75278, "BSTAR": 0.00083986852, "MEAN_MOTION_DOT": 0.00051462, "MEAN_MOTION_DDOT": 0}, "tle": {"line1": "1 32203U 99025CUZ 25358.45645596  .00051462  00000+0  83987-3 0  9997", "line2": "2 32203  97.0154 249.4857 0141498  49.8239 311.5297 15.41806520752788"}}, "geometry": {"type": "Point", "coordinates": [-102.68552335469595, -44.803195635874694]}}]}